SAUDISAT 1C (SO-50)     
1 27607U 02058C   26169.97596767  .00000773  00000+0  10866-3 0  9997
2 27607  64.5512 123.4505 0075180 262.1401  97.1166 14.83050375264721
SAUDISAT 2              
1 28371U 04025F   26169.95225642  .00000175  00000+0  50287-4 0  9999
2 28371  98.5507 169.9798 0023538 292.5681  67.3025 14.56684729166008
SAUDISAT 3              
1 31118U 07012B   26169.75473626  .00000194  00000+0  39498-4 0  9998
2 31118  98.1456 120.1564 0013730 218.5452 141.4775 14.71426372 27970
PISAT                   
1 41784U 16059B   26169.91501830  .00000640  00000+0  11658-3 0  9999
2 41784  97.8178 170.2936 0028535 197.1252 162.8994 14.68985768519998
FLYING LAPTOP           
1 42831U 17042G   26169.98527682  .00002712  00000+0  21529-3 0  9996
2 42831  97.4695 325.4483 0019616 115.7715 244.5537 15.01155403486721
SALSAT                  
1 46495U 20068K   26169.97697597  .00005999  00000+0  21050-3 0  9999
2 46495  97.8853 173.1506 0007950 300.6759  59.3696 15.29820569315637
